LEMUR-2-DEMBITZ         
1 42842U 17042T   26068.47492167  .00020231  00000+0  76561-3 0  9991
2 42842  97.3807 250.9241 0006961  17.1421 343.0051 15.26947128473114
STARLINK-31860          
1 59670U 24084S   26068.29977680  .00000063  00000+0  11822-4 0  9991
2 59670  43.0038  40.5216 0001168 233.4402 126.6342 15.27576635104331
